{
  "type": "FeatureCollection",
  "features": [
    {
      "type": "Feature",
      "properties": {
        "norad_id": 31913,
        "name": "FENGYUN 1C DEB",
        "group": "fengyun-1c-debris",
        "lat": -78.23093381849552,
        "lon": 41.927785965864416,
        "alt_km": 806.6885281129307,
        "timestamp": "2025-12-18T17:50:15.241480+00:00",
        "meta_object_name": "FENGYUN 1C DEB",
        "meta_object_id": "1999-025CLQ",
        "meta_epoch": "2025-12-18T01:01:43.581792",
        "meta_mean_motion": 13.91276253,
        "meta_eccentricity": 0.0205137,
        "meta_inclination": 99.2939,
        "meta_ra_of_asc_node": 273.034,
        "meta_arg_of_pericenter": 298.918,
        "meta_mean_anomaly": 59.154,
        "meta_ephemeris_type": 0,
        "meta_classification_type": "U",
        "meta_norad_cat_id": 31913,
        "meta_element_set_no": 999,
        "meta_rev_at_epoch": 55960,
        "meta_bstar": 0.0052171572,
        "meta_mean_motion_dot": 7.764e-05,
        "meta_mean_motion_ddot": 0,
        "tle_line1": "1 31913U 99025CLQ 25352.04286553  .00007764  00000+0  52172-2 0  9994",
        "tle_line2": "2 31913  99.2939 273.0340 0205137 298.9180  59.1540 13.91276253559602"
      },
      "geometry": {
        "type": "Point",
        "coordinates": [
          41.927785965864416,
          -78.23093381849552
        ]
      }
    },
    {
      "type": "Feature",
      "properties": {
        "norad_id": 31914,
        "name": "FENGYUN 1C DEB",
        "group": "fengyun-1c-debris",
        "lat": 13.097925748586245,
        "lon": -145.85505593376794,
        "alt_km": 604.7130582497512,
        "timestamp": "2025-12-18T17:50:15.241490+00:00",
        "meta_object_name": "FENGYUN 1C DEB",
        "meta_object_id": "1999-025CLR",
        "meta_epoch": "2025-12-17T08:47:11.001984",
        "meta_mean_motion": 14.55718844,
        "meta_eccentricity": 0.01830025,
        "meta_inclination": 99.0265,
        "meta_ra_of_asc_node": 214.7758,
        "meta_arg_of_pericenter": 55.2988,
        "meta_mean_anomaly": 306.5296,
        "meta_ephemeris_type": 0,
        "meta_classification_type": "U",
        "meta_norad_cat_id": 31914,
        "meta_element_set_no": 999,
        "meta_rev_at_epoch": 68540,
        "meta_bstar": 0.00012725314,
        "meta_mean_motion_dot": 6.34e-06,
        "meta_mean_motion_ddot": 0,
        "tle_line1": "1 31914U 99025CLR 25351.36609956  .00000634  00000+0  12725-3 0  9995",
        "tle_line2": "2 31914  99.0265 214.7758 0183002  55.2988 306.5296 14.55718844685407"
      },
      "geometry": {
        "type": "Point",
        "coordinates": [
          -145.85505593376794,
          13.097925748586245
        ]
      }
    },
    {
      "type": "Feature",
      "properties": {
        "norad_id": 31915,
        "name": "FENGYUN 1C DEB",
        "group": "fengyun-1c-debris",
        "lat": 81.038830142981,
        "lon": -95.20282710812252,
        "alt_km": 899.2938373135285,
        "timestamp": "2025-12-18T17:50:15.241500+00:00",
        "meta_object_name": "FENGYUN 1C DEB",
        "meta_object_id": "1999-025CLS",
        "meta_epoch": "2025-12-18T07:13:20.180928",
        "meta_mean_motion": 14.16229822,
        "meta_eccentricity": 0.01011151,
        "meta_inclination": 98.6312,
        "meta_ra_of_asc_node": 9.9572,
        "meta_arg_of_pericenter": 253.9486,
        "meta_mean_anomaly": 105.0535,
        "meta_ephemeris_type": 0,
        "meta_classification_type": "U",
        "meta_norad_cat_id": 31915,
        "meta_element_set_no": 999,
        "meta_rev_at_epoch": 64186,
        "meta_bstar": 0.00067803261,
        "meta_mean_motion_dot": 1.368e-05,
        "meta_mean_motion_ddot": 0,
        "tle_line1": "1 31915U 99025CLS 25352.30092802  .00001368  00000+0  67803-3 0  9999",
        "tle_line2": "2 31915  98.6312   9.9572 0101115 253.9486 105.0535 14.16229822641869"
      },
      "geometry": {
        "type": "Point",
        "coordinates": [
          -95.20282710812252,
          81.038830142981
        ]
      }
    },
    {
      "type": "Feature",
      "properties": {
        "norad_id": 31916,
        "name": "FENGYUN 1C DEB",
        "group": "fengyun-1c-debris",
        "lat": -72.18207598963635,
        "lon": 109.15225027405876,
        "alt_km": 884.1805228970779,
        "timestamp": "2025-12-18T17:50:15.241510+00:00",
        "meta_object_name": "FENGYUN 1C DEB",
        "meta_object_id": "1999-025CLT",
        "meta_epoch": "2025-12-15T23:08:21.633792",
        "meta_mean_motion": 14.32538908,
        "meta_eccentricity": 0.01460081,
        "meta_inclination": 99.3305,
        "meta_ra_of_asc_node": 75.3969,
        "meta_arg_of_pericenter": 87.3339,
        "meta_mean_anomaly": 274.4545,
        "meta_ephemeris_type": 0,
        "meta_classification_type": "U",
        "meta_norad_cat_id": 31916,
        "meta_element_set_no": 999,
        "meta_rev_at_epoch": 64573,
        "meta_bstar": 0.0009298635,
        "meta_mean_motion_dot": 2.787e-05,
        "meta_mean_motion_ddot": 0,
        "tle_line1": "1 31916U 99025CLT 25349.96413928  .00002787  00000+0  92986-3 0  9990",
        "tle_line2": "2 31916  99.3305  75.3969 0146008  87.3339 274.4545 14.32538908645731"
      },
      "geometry": {
        "type": "Point",
        "coordinates": [
          109.15225027405876,
          -72.18207598963635
        ]
      }
    },
    {
      "type": "Feature",
      "properties": {
        "norad_id": 31917,
        "name": "FENGYUN 1C DEB",
        "group": "fengyun-1c-debris",
        "lat": -25.554184458590207,
        "lon": -10.60592585646254,
        "alt_km": 700.326427576897,
        "timestamp": "2025-12-18T17:50:15.241521+00:00",
        "meta_object_name": "FENGYUN 1C DEB",
        "meta_object_id": "1999-025CLU",
        "meta_epoch": "2025-12-17T05:31:01.156800",
        "meta_mean_motion": 14.37643613,
        "meta_eccentricity": 0.01890227,
        "meta_inclination": 98.3604,
        "meta_ra_of_asc_node": 343.8894,
        "meta_arg_of_pericenter": 279.8643,
        "meta_mean_anomaly": 144.671,
        "meta_ephemeris_type": 0,
        "meta_classification_type": "U",
        "meta_norad_cat_id": 31917,
        "meta_element_set_no": 999,
        "meta_rev_at_epoch": 96486,
        "meta_bstar": 0.0004541515,
        "meta_mean_motion_dot": 1.625e-05,
        "meta_mean_motion_ddot": 0,
        "tle_line1": "1 31917U 99025CLU 25351.22987450  .00001625  00000+0  45415-3 0  9994",
        "tle_line2": "2 31917  98.3604 343.8894 0189022 279.8643 144.6710 14.37643613964867"
      },
      "geometry": {
        "type": "Point",
        "coordinates": [
          -10.60592585646254,
          -25.554184458590207
        ]
      }
    },
    {
      "type": "Feature",
      "properties": {
        "norad_id": 31919,
        "name": "FENGYUN 1C DEB",
        "group": "fengyun-1c-debris",
        "lat": -22.06483809271248,
        "lon": 139.31664312471835,
        "alt_km": 807.0162172693954,
        "timestamp": "2025-12-18T17:50:15.241531+00:00",
        "meta_object_name": "FENGYUN 1C DEB",
        "meta_object_id": "1999-025CLW",
        "meta_epoch": "2025-12-17T15:26:20.465952",
        "meta_mean_motion": 14.45773172,
        "meta_eccentricity": 0.01023496,
        "meta_inclination": 99.1018,
        "meta_ra_of_asc_node": 134.4115,
        "meta_arg_of_pericenter": 192.0554,
        "meta_mean_anomaly": 183.4001,
        "meta_ephemeris_type": 0,
        "meta_classification_type": "U",
        "meta_norad_cat_id": 31919,
        "meta_element_set_no": 999,
        "meta_rev_at_epoch": 97152,
        "meta_bstar": 0.0004018178,
        "meta_mean_motion_dot": 1.465e-05,
        "meta_mean_motion_ddot": 0,
        "tle_line1": "1 31919U 99025CLW 25351.64329243  .00001465  00000+0  40182-3 0  9990",
        "tle_line2": "2 31919  99.1018 134.4115 0102349 192.0554 183.4001 14.45773172971529"
      },
      "geometry": {
        "type": "Point",
        "coordinates": [
          139.31664312471835,
          -22.06483809271248
        ]
      }
    },
    {
      "type": "Feature",
      "properties": {
        "norad_id": 31921,
        "name": "FENGYUN 1C DEB",
        "group": "fengyun-1c-debris",
        "lat": -62.06430518782227,
        "lon": -96.9339755381656,
        "alt_km": 885.4232837569443,
        "timestamp": "2025-12-18T17:50:15.241541+00:00",
        "meta_object_name": "FENGYUN 1C DEB",
        "meta_object_id": "1999-025CLY",
        "meta_epoch": "2025-12-14T11:07:39.123264",
        "meta_mean_motion": 13.75272567,
        "meta_eccentricity": 0.02016687,
        "meta_inclination": 99.3382,
        "meta_ra_of_asc_node": 240.7973,
        "meta_arg_of_pericenter": 260.4861,
        "meta_mean_anomaly": 97.3447,
        "meta_ephemeris_type": 0,
        "meta_classification_type": "U",
        "meta_norad_cat_id": 31921,
        "meta_element_set_no": 999,
        "meta_rev_at_epoch": 92330,
        "meta_bstar": 0.001077077,
        "meta_mean_motion_dot": 1.153e-05,
        "meta_mean_motion_ddot": 0,
        "tle_line1": "1 31921U 99025CLY 25348.46364726  .00001153  00000+0  10771-2 0  9998",
        "tle_line2": "2 31921  99.3382 240.7973 0201668 260.4861  97.3447 13.75272567923300"
      },
      "geometry": {
        "type": "Point",
        "coordinates": [
          -96.9339755381656,
          -62.06430518782227
        ]
      }
    }
  ]
}